FENGYUN 1C DEB          
1 30418U 99025AEH 17346.55616007  .00000372  00000-0  75111-4 0  9993
2 30418  98.7975 249.2222 0164134 141.1850 341.5904 14.59913980578370
